start=new Date('2021-11-30T00:00:00.000Z').valueOf();
sats=[{"MEAN_MOTION":"15.06399034","PERIAPSIS":"545.843","MEAN_ELEMENT_THEORY":"SGP4","MEAN_ANOMALY":"298.0027","RCS_SIZE":"LARGE","INCLINATION":"53.0572","EPHEMERIS_TYPE":"0","ECCENTRICITY":"0.00019830","LAUNCH_DATE":"2021-04-29","BSTAR":"0.00006295700000","MEAN_MOTION_DOT":"0.00000656","CLASSIFICATION_TYPE":"U","OBJECT_NAME":"STARLINK-2530","CENTER_NAME":"EARTH","REF_FRAME":"TEME","OBJECT_TYPE":"PAYLOAD","OBJECT_ID":"2021-036AD","TIME_SYSTEM":"UTC","APOAPSIS":"548.590","TLE_LINE1":"1 48303U 21036AD  21333.51015441  .00000656  00000-0  62957-4 0  9993","FILE":"3226898","ARG_OF_PERICENTER":"62.1163","EPOCH":"2021-11-29T12:14:37.341024","MEAN_MOTION_DDOT":"0.0000000000000","SITE":"AFETR","RA_OF_ASC_NODE":"260.0131","COUNTRY_CODE":"US","GP_ID":"190722205","ELEMENT_SET_NO":"999","PERIOD":"95.592","NORAD_CAT_ID":"48303","REV_AT_EPOCH":"3286","SEMIMAJOR_AXIS":"6925.352","TLE_LINE2":"2 48303  53.0572 260.0131 0001983  62.1163 298.0027 15.06399034 32862","DECAY_DATE":null},{"MEAN_MOTION_DDOT":"0.0000000000000","SITE":"AFETR","RA_OF_ASC_NODE":"258.8498","COUNTRY_CODE":"US","ARG_OF_PERICENTER":"58.7259","EPOCH":"2021-11-29T18:31:27.941088","TLE_LINE2":"2 48304  53.0558 258.8498 0002327  58.7259 301.3957 15.06398608 32909","DECAY_DATE":null,"ELEMENT_SET_NO":"999","GP_ID":"190750548","PERIOD":"95.592","NORAD_CAT_ID":"48304","REV_AT_EPOCH":"3290","SEMIMAJOR_AXIS":"6925.353","LAUNCH_DATE":"2021-04-29","ECCENTRICITY":"0.00023270","BSTAR":"0.00006797800000","CLASSIFICATION_TYPE":"U","MEAN_MOTION_DOT":"0.00000731","OBJECT_NAME":"STARLINK-2524","MEAN_MOTION":"15.06398608","PERIAPSIS":"545.606","MEAN_ANOMALY":"301.3957","MEAN_ELEMENT_THEORY":"SGP4","EPHEMERIS_TYPE":"0","RCS_SIZE":"LARGE","INCLINATION":"53.0558","APOAPSIS":"548.829","TLE_LINE1":"1 48304U 21036AE  21333.77185117  .00000731  00000-0  67978-4 0  9992","FILE":"3227094","CENTER_NAME":"EARTH","REF_FRAME":"TEME","OBJECT_TYPE":"PAYLOAD","OBJECT_ID":"2021-036AE","TIME_SYSTEM":"UTC"},{"OBJECT_NAME":"STARLINK-2519","MEAN_MOTION_DOT":"0.00000173","CLASSIFICATION_TYPE":"U","LAUNCH_DATE":"2021-04-29","BSTAR":"0.00003053400000","ECCENTRICITY":"0.00017870","INCLINATION":"53.0551","RCS_SIZE":"LARGE","EPHEMERIS_TYPE":"0","MEAN_ANOMALY":"296.6197","MEAN_ELEMENT_THEORY":"SGP4","PERIAPSIS":"545.980","MEAN_MOTION":"15.06398542","FILE":"3227094","TLE_LINE1":"1 48305U 21036AF  21333.83451128  .00000173  00000-0  30534-4 0  9996","APOAPSIS":"548.456","TIME_SYSTEM":"UTC","OBJECT_ID":"2021-036AF","OBJECT_TYPE":"PAYLOAD","REF_FRAME":"TEME","CENTER_NAME":"EARTH","RA_OF_ASC_NODE":"258.5597","COUNTRY_CODE":"US","SITE":"AFETR","MEAN_MOTION_DDOT":"0.0000000000000","EPOCH":"2021-11-29T20:01:41.774592","ARG_OF_PERICENTER":"63.4975","DECAY_DATE":null,"TLE_LINE2":"2 48305  53.0551 258.5597 0001787  63.4975 296.6197 15.06398542 32917","SEMIMAJOR_AXIS":"6925.353","REV_AT_EPOCH":"3291","NORAD_CAT_ID":"48305","PERIOD":"95.592","GP_ID":"190750799","ELEMENT_SET_NO":"999"},{"DECAY_DATE":null,"TLE_LINE2":"2 48306  53.0547 260.0789 0002070  67.1186 293.0021 15.06394981 33455","ELEMENT_SET_NO":"999","GP_ID":"190724971","PERIOD":"95.592","SEMIMAJOR_AXIS":"6925.364","NORAD_CAT_ID":"48306","REV_AT_EPOCH":"3345","MEAN_MOTION_DDOT":"0.0000000000000","COUNTRY_CODE":"US","RA_OF_ASC_NODE":"260.0789","SITE":"AFETR","EPOCH":"2021-11-29T11:58:41.786400","ARG_OF_PERICENTER":"67.1186","FILE":"3226951","TLE_LINE1":"1 48306U 21036AG  21333.49909475  .00000868  00000-0  77206-4 0  9990","APOAPSIS":"548.662","REF_FRAME":"TEME","OBJECT_TYPE":"PAYLOAD","CENTER_NAME":"EARTH","OBJECT_ID":"2021-036AG","TIME_SYSTEM":"UTC","OBJECT_NAME":"STARLINK-2523","BSTAR":"0.00007720600000","LAUNCH_DATE":"2021-04-29","ECCENTRICITY":"0.00020700","MEAN_MOTION_DOT":"0.00000868","CLASSIFICATION_TYPE":"U","MEAN_MOTION":"15.06394981","MEAN_ELEMENT_THEORY":"SGP4","MEAN_ANOMALY":"293.0021","RCS_SIZE":"LARGE","INCLINATION":"53.0547","EPHEMERIS_TYPE":"0","PERIAPSIS":"545.795"},{"OBJECT_TYPE":"PAYLOAD","REF_FRAME":"TEME","CENTER_NAME":"EARTH","OBJECT_ID":"2021-036AH","TIME_SYSTEM":"UTC","FILE":"3227094","TLE_LINE1":"1 48307U 21036AH  21333.82714580  .00000193  00000-0  31839-4 0  9992","APOAPSIS":"548.618","MEAN_MOTION":"15.06396270","RCS_SIZE":"LARGE","EPHEMERIS_TYPE":"0","INCLINATION":"53.0566","MEAN_ELEMENT_THEORY":"SGP4","MEAN_ANOMALY":"292.5527","PERIAPSIS":"545.832","OBJECT_NAME":"STARLINK-2528","MEAN_MOTION_DOT":"0.00000193","CLASSIFICATION_TYPE":"U","ECCENTRICITY":"0.00020110","LAUNCH_DATE":"2021-04-29","BSTAR":"0.00003183900000","PERIOD":"95.592","GP_ID":"190749298","ELEMENT_SET_NO":"999","SEMIMAJOR_AXIS":"6925.360","REV_AT_EPOCH":"3291","NORAD_CAT_ID":"48307","DECAY_DATE":null,"TLE_LINE2":"2 48307  53.0566 258.5954 0002011  67.5675 292.5527 15.06396270 32913","EPOCH":"2021-11-29T19:51:05.397120","ARG_OF_PERICENTER":"67.5675","MEAN_MOTION_DDOT":"0.0000000000000","RA_OF_ASC_NODE":"258.5954","COUNTRY_CODE":"US","SITE":"AFETR"},{"FILE":"3227094","APOAPSIS":"548.605","TLE_LINE1":"1 48308U 21036AJ  21333.82345715  .00000428  00000-0  47664-4 0  9997","OBJECT_ID":"2021-036AJ","TIME_SYSTEM":"UTC","REF_FRAME":"TEME","OBJECT_TYPE":"PAYLOAD","CENTER_NAME":"EARTH","OBJECT_NAME":"STARLINK-2532","ECCENTRICITY":"0.00019940","LAUNCH_DATE":"2021-04-29","BSTAR":"0.00004766400000","MEAN_MOTION_DOT":"0.00000428","CLASSIFICATION_TYPE":"U","MEAN_ANOMALY":"297.2092","MEAN_ELEMENT_THEORY":"SGP4","RCS_SIZE":"LARGE","INCLINATION":"53.0540","EPHEMERIS_TYPE":"0","PERIAPSIS":"545.843","MEAN_MOTION":"15.06396578","DECAY_DATE":null,"TLE_LINE2":"2 48308  53.0540 258.6198 0001994  62.9101 297.2092 15.06396578 32919","SEMIMAJOR_AXIS":"6925.359","NORAD_CAT_ID":"48308","REV_AT_EPOCH":"3291","GP_ID":"190750049","ELEMENT_SET_NO":"999","PERIOD":"95.592","COUNTRY_CODE":"US","RA_OF_ASC_NODE":"258.6198","SITE":"AFETR","MEAN_MOTION_DDOT":"0.0000000000000","EPOCH":"2021-11-29T19:45:46.697760","ARG_OF_PERICENTER":"62.9101"},{"TLE_LINE1":"1 48309U 21036AK  21333.22264297  .00001872  00000-0  14456-3 0  9993","APOAPSIS":"548.728","FILE":"3226898","CENTER_NAME":"EARTH","OBJECT_TYPE":"PAYLOAD","REF_FRAME":"TEME","TIME_SYSTEM":"UTC","OBJECT_ID":"2021-036AK","MEAN_MOTION_DOT":"0.00001872","CLASSIFICATION_TYPE":"U","ECCENTRICITY":"0.00021950","LAUNCH_DATE":"2021-04-29","BSTAR":"0.00014456000000","OBJECT_NAME":"STARLINK-2517","MEAN_MOTION":"15.06401901","PERIAPSIS":"545.688","INCLINATION":"53.0548","RCS_SIZE":"MEDIUM","EPHEMERIS_TYPE":"0","MEAN_ANOMALY":"299.3606","MEAN_ELEMENT_THEORY":"SGP4","TLE_LINE2":"2 48309  53.0548 261.3271 0002195  60.7602 299.3606 15.06401901 32828","DECAY_DATE":null,"PERIOD":"95.592","ELEMENT_SET_NO":"999","GP_ID":"190721704","REV_AT_EPOCH":"3282","NORAD_CAT_ID":"48309","SEMIMAJOR_AXIS":"6925.343","MEAN_MOTION_DDOT":"0.0000000000000","SITE":"AFETR","RA_OF_ASC_NODE":"261.3271","COUNTRY_CODE":"US","ARG_OF_PERICENTER":"60.7602","EPOCH":"2021-11-29T05:20:36.352608"},{"ARG_OF_PERICENTER":"59.3499","EPOCH":"2021-11-29T06:50:50.801280","SITE":"AFETR","RA_OF_ASC_NODE":"261.0253","COUNTRY_CODE":"US","MEAN_MOTION_DDOT":"0.0000000000000","REV_AT_EPOCH":"3283","NORAD_CAT_ID":"48310","SEMIMAJOR_AXIS":"6925.362","PERIOD":"95.592","ELEMENT_SET_NO":"999","GP_ID":"190721954","TLE_LINE2":"2 48310  53.0550 261.0253 0002223  59.3499 300.7709 15.06395556 32830","DECAY_DATE":null,"PERIAPSIS":"545.688","EPHEMERIS_TYPE":"0","RCS_SIZE":"LARGE","INCLINATION":"53.0550","MEAN_ELEMENT_THEORY":"SGP4","MEAN_ANOMALY":"300.7709","MEAN_MOTION":"15.06395556","MEAN_MOTION_DOT":"0.00000363","CLASSIFICATION_TYPE":"U","LAUNCH_DATE":"2021-04-29","BSTAR":"0.00004328600000","ECCENTRICITY":"0.00022230","OBJECT_NAME":"STARLINK-2536","TIME_SYSTEM":"UTC","OBJECT_ID":"2021-036AL","CENTER_NAME":"EARTH","OBJECT_TYPE":"PAYLOAD","REF_FRAME":"TEME","TLE_LINE1":"1 48310U 21036AL  21333.28531020  .00000363  00000-0  43286-4 0  9990","APOAPSIS":"548.767","FILE":"3226898"},{"RA_OF_ASC_NODE":"261.3537","COUNTRY_CODE":"US","SITE":"AFETR","MEAN_MOTION_DDOT":"0.0000000000000","EPOCH":"2021-11-29T05:09:59.512032","ARG_OF_PERICENTER":"58.2586","DECAY_DATE":null,"TLE_LINE2":"2 48311  53.0553 261.3537 0002457  58.2586 301.8643 15.06410551 32827","SEMIMAJOR_AXIS":"6925.316","REV_AT_EPOCH":"3282","NORAD_CAT_ID":"48311","PERIOD":"95.591","ELEMENT_SET_NO":"999","GP_ID":"190722206","OBJECT_NAME":"STARLINK-2534","CLASSIFICATION_TYPE":"U","MEAN_MOTION_DOT":"0.00002257","BSTAR":"0.00017032000000","LAUNCH_DATE":"2021-04-29","ECCENTRICITY":"0.00024570","RCS_SIZE":"LARGE","EPHEMERIS_TYPE":"0","INCLINATION":"53.0553","MEAN_ANOMALY":"301.8643","MEAN_ELEMENT_THEORY":"SGP4","PERIAPSIS":"545.480","MEAN_MOTION":"15.06410551","FILE":"3226898","APOAPSIS":"548.883","TLE_LINE1":"1 48311U 21036AM  21333.21527213  .00002257  00000-0  17032-3 0  9996","OBJECT_ID":"2021-036AM","TIME_SYSTEM":"UTC","OBJECT_TYPE":"PAYLOAD","REF_FRAME":"TEME","CENTER_NAME":"EARTH"},{"FILE":"3227094","TLE_LINE1":"1 48312U 21036AN  21333.87505890  .00003282  00000-0  23909-3 0  9995","APOAPSIS":"548.656","OBJECT_ID":"2021-036AN","TIME_SYSTEM":"UTC","OBJECT_TYPE":"PAYLOAD","REF_FRAME":"TEME","CENTER_NAME":"EARTH","OBJECT_NAME":"STARLINK-2061","MEAN_MOTION_DOT":"0.00003282","CLASSIFICATION_TYPE":"U","LAUNCH_DATE":"2021-04-29","ECCENTRICITY":"0.00020970","BSTAR":"0.00023909000000","EPHEMERIS_TYPE":"0","RCS_SIZE":"LARGE","INCLINATION":"53.0537","MEAN_ELEMENT_THEORY":"SGP4","MEAN_ANOMALY":"296.5950","PERIAPSIS":"545.752","MEAN_MOTION":"15.06403170","DECAY_DATE":null,"TLE_LINE2":"2 48312  53.0537 258.3935 0002097  63.5254 296.5950 15.06403170 32920","SEMIMAJOR_AXIS":"6925.339","REV_AT_EPOCH":"3292","NORAD_CAT_ID":"48312","PERIOD":"95.592","ELEMENT_SET_NO":"999","GP_ID":"190750549","COUNTRY_CODE":"US","RA_OF_ASC_NODE":"258.3935","SITE":"AFETR","MEAN_MOTION_DDOT":"0.0000000000000","EPOCH":"2021-11-29T21:00:05.088960","ARG_OF_PERICENTER":"63.5254"}];
